[{"OBJECT_NAME":"ONEWEB-0501","OBJECT_ID":"2022-138G","EPOCH":"2025-11-06T02:42:58.386528","MEAN_MOTION":13.19726904,"ECCENTRICITY":0.00021185,"INCLINATION":87.9243,"RA_OF_ASC_NODE":349.343,"ARG_OF_PERICENTER":106.2141,"MEAN_ANOMALY":253.9225,"EPHEMERIS_TYPE":0,"CLASSIFICATION_TYPE":"U","NORAD_CAT_ID":54119,"ELEMENT_SET_NO":999,"REV_AT_EPOCH":14738,"BSTAR":9.868777e-5,"MEAN_MOTION_DOT":5.2e-7,"MEAN_MOTION_DDOT":0},{"OBJECT_NAME":"ONEWEB-0502","OBJECT_ID":"2022-138H","EPOCH":"2025-11-06T02:22:29.577216","MEAN_MOTION":13.19726896,"ECCENTRICITY":0.0001914,"INCLINATION":87.9239,"RA_OF_ASC_NODE":349.3278,"ARG_OF_PERICENTER":103.8567,"MEAN_ANOMALY":256.2779,"EPHEMERIS_TYPE":0,"CLASSIFICATION_TYPE":"U","NORAD_CAT_ID":54120,"ELEMENT_SET_NO":999,"REV_AT_EPOCH":14740,"BSTAR":0.00018172362,"MEAN_MOTION_DOT":8.6e-7,"MEAN_MOTION_DDOT":0},{"OBJECT_NAME":"ONEWEB-0503","OBJECT_ID":"2022-138J","EPOCH":"2025-11-06T03:55:45.141024","MEAN_MOTION":13.19725212,"ECCENTRICITY":0.00016069,"INCLINATION":87.924,"RA_OF_ASC_NODE":349.3193,"ARG_OF_PERICENTER":99.8965,"MEAN_ANOMALY":260.2349,"EPHEMERIS_TYPE":0,"CLASSIFICATION_TYPE":"U","NORAD_CAT_ID":54121,"ELEMENT_SET_NO":999,"REV_AT_EPOCH":14740,"BSTAR":2.9157265e-5,"MEAN_MOTION_DOT":2.5e-7,"MEAN_MOTION_DDOT":0},{"OBJECT_NAME":"ONEWEB-0504","OBJECT_ID":"2022-138K","EPOCH":"2025-11-06T03:37:33.691296","MEAN_MOTION":13.1972593,"ECCENTRICITY":0.00019011,"INCLINATION":87.9235,"RA_OF_ASC_NODE":349.3388,"ARG_OF_PERICENTER":105.0719,"MEAN_ANOMALY":255.0624,"EPHEMERIS_TYPE":0,"CLASSIFICATION_TYPE":"U","NORAD_CAT_ID":54122,"ELEMENT_SET_NO":999,"REV_AT_EPOCH":14741,"BSTAR":0.00010755862,"MEAN_MOTION_DOT":5.6e-7,"MEAN_MOTION_DDOT":0},{"OBJECT_NAME":"ONEWEB-0505","OBJECT_ID":"2022-138L","EPOCH":"2025-11-06T03:33:00.597312","MEAN_MOTION":13.19726138,"ECCENTRICITY":0.00021784,"INCLINATION":87.9239,"RA_OF_ASC_NODE":349.3279,"ARG_OF_PERICENTER":110.1446,"MEAN_ANOMALY":249.9921,"EPHEMERIS_TYPE":0,"CLASSIFICATION_TYPE":"U","NORAD_CAT_ID":54123,"ELEMENT_SET_NO":999,"REV_AT_EPOCH":14739,"BSTAR":0.00017035337,"MEAN_MOTION_DOT":8.1e-7,"MEAN_MOTION_DDOT":0},{"OBJECT_NAME":"ONEWEB-0506","OBJECT_ID":"2022-138M","EPOCH":"2025-11-06T02:56:36.849408","MEAN_MOTION":13.19726754,"ECCENTRICITY":0.00019364,"INCLINATION":87.924,"RA_OF_ASC_NODE":349.3302,"ARG_OF_PERICENTER":101.8163,"MEAN_ANOMALY":258.3187,"EPHEMERIS_TYPE":0,"CLASSIFICATION_TYPE":"U","NORAD_CAT_ID":54124,"ELEMENT_SET_NO":999,"REV_AT_EPOCH":14738,"BSTAR":0.00020704339,"MEAN_MOTION_DOT":9.6e-7,"MEAN_MOTION_DDOT":0},{"OBJECT_NAME":"ONEWEB-0507","OBJECT_ID":"2022-138N","EPOCH":"2025-11-06T03:26:10.838400","MEAN_MOTION":13.19725959,"ECCENTRICITY":0.00020227,"INCLINATION":87.9222,"RA_OF_ASC_NODE":349.3678,"ARG_OF_PERICENTER":101.2332,"MEAN_ANOMALY":258.9028,"EPHEMERIS_TYPE":0,"CLASSIFICATION_TYPE":"U","NORAD_CAT_ID":54125,"ELEMENT_SET_NO":999,"REV_AT_EPOCH":14743,"BSTAR":0.00014215797,"MEAN_MOTION_DOT":7.0e-7,"MEAN_MOTION_DDOT":0},{"OBJECT_NAME":"ONEWEB-0508","OBJECT_ID":"2022-138P","EPOCH":"2025-11-06T03:21:37.603584","MEAN_MOTION":13.19726293,"ECCENTRICITY":0.00022009,"INCLINATION":87.923,"RA_OF_ASC_NODE":349.3582,"ARG_OF_PERICENTER":103.4792,"MEAN_ANOMALY":256.6586,"EPHEMERIS_TYPE":0,"CLASSIFICATION_TYPE":"U","NORAD_CAT_ID":54126,"ELEMENT_SET_NO":999,"REV_AT_EPOCH":14741,"BSTAR":0.00026441691,"MEAN_MOTION_DOT":1.19e-6,"MEAN_MOTION_DDOT":0},{"OBJECT_NAME":"ONEWEB-0509","OBJECT_ID":"2022-138Q","EPOCH":"2025-11-06T02:45:14.433696","MEAN_MOTION":13.19725843,"ECCENTRICITY":0.00019407,"INCLINATION":87.9245,"RA_OF_ASC_NODE":349.3308,"ARG_OF_PERICENTER":100.1539,"MEAN_ANOMALY":259.9813,"EPHEMERIS_TYPE":0,"CLASSIFICATION_TYPE":"U","NORAD_CAT_ID":54127,"ELEMENT_SET_NO":999,"REV_AT_EPOCH":14738,"BSTAR":0.00010781479,"MEAN_MOTION_DOT":5.6e-7,"MEAN_MOTION_DDOT":0},{"OBJECT_NAME":"ONEWEB-0510","OBJECT_ID":"2022-138R","EPOCH":"2025-11-06T06:07:13.856736","MEAN_MOTION":13.20772091,"ECCENTRICITY":0.00016456,"INCLINATION":87.9181,"RA_OF_ASC_NODE":318.8986,"ARG_OF_PERICENTER":75.1616,"MEAN_ANOMALY":284.97,"EPHEMERIS_TYPE":0,"CLASSIFICATION_TYPE":"U","NORAD_CAT_ID":54128,"ELEMENT_SET_NO":999,"REV_AT_EPOCH":14985,"BSTAR":-0.0002081842,"MEAN_MOTION_DOT":-7.2e-7,"MEAN_MOTION_DDOT":0},{"OBJECT_NAME":"ONEWEB-0511","OBJECT_ID":"2022-138S","EPOCH":"2025-11-06T04:29:52.078848","MEAN_MOTION":13.19726377,"ECCENTRICITY":0.00016308,"INCLINATION":87.9239,"RA_OF_ASC_NODE":349.3201,"ARG_OF_PERICENTER":102.2778,"MEAN_ANOMALY":257.8537,"EPHEMERIS_TYPE":0,"CLASSIFICATION_TYPE":"U","NORAD_CAT_ID":54129,"ELEMENT_SET_NO":999,"REV_AT_EPOCH":14742,"BSTAR":-5.7138089e-5,"MEAN_MOTION_DOT":-1.0e-7,"MEAN_MOTION_DDOT":0},{"OBJECT_NAME":"ONEWEB-0512","OBJECT_ID":"2022-138T","EPOCH":"2025-11-06T02:29:18.739104","MEAN_MOTION":13.19726621,"ECCENTRICITY":0.0001994,"INCLINATION":87.9226,"RA_OF_ASC_NODE":349.3671,"ARG_OF_PERICENTER":108.1936,"MEAN_ANOMALY":251.9414,"EPHEMERIS_TYPE":0,"CLASSIFICATION_TYPE":"U","NORAD_CAT_ID":54130,"ELEMENT_SET_NO":999,"REV_AT_EPOCH":14738,"BSTAR":7.8057141e-5,"MEAN_MOTION_DOT":4.4e-7,"MEAN_MOTION_DDOT":0},{"OBJECT_NAME":"ONEWEB-0513","OBJECT_ID":"2022-138U","EPOCH":"2025-11-06T03:00:54.550368","MEAN_MOTION":13.203194,"ECCENTRICITY":0.00017663,"INCLINATION":87.9245,"RA_OF_ASC_NODE":349.3236,"ARG_OF_PERICENTER":116.5147,"MEAN_ANOMALY":243.6167,"EPHEMERIS_TYPE":0,"CLASSIFICATION_TYPE":"U","NORAD_CAT_ID":54131,"ELEMENT_SET_NO":999,"REV_AT_EPOCH":14728,"BSTAR":6.011613e-5,"MEAN_MOTION_DOT":3.7e-7,"MEAN_MOTION_DDOT":0},{"OBJECT_NAME":"ONEWEB-0514","OBJECT_ID":"2022-138V","EPOCH":"2025-11-06T02:52:04.005984","MEAN_MOTION":13.19725846,"ECCENTRICITY":0.00017708,"INCLINATION":87.9235,"RA_OF_ASC_NODE":349.3456,"ARG_OF_PERICENTER":94.0227,"MEAN_ANOMALY":266.1108,"EPHEMERIS_TYPE":0,"CLASSIFICATION_TYPE":"U","NORAD_CAT_ID":54132,"ELEMENT_SET_NO":999,"REV_AT_EPOCH":14740,"BSTAR":0.00012915497,"MEAN_MOTION_DOT":6.5e-7,"MEAN_MOTION_DDOT":0},{"OBJECT_NAME":"ONEWEB-0515","OBJECT_ID":"2022-138W","EPOCH":"2025-11-06T07:38:07.725408","MEAN_MOTION":13.20772657,"ECCENTRICITY":0.00023179,"INCLINATION":87.9188,"RA_OF_ASC_NODE":318.8694,"ARG_OF_PERICENTER":70.135,"MEAN_ANOMALY":290.0033,"EPHEMERIS_TYPE":0,"CLASSIFICATION_TYPE":"U","NORAD_CAT_ID":54133,"ELEMENT_SET_NO":999,"REV_AT_EPOCH":14988,"BSTAR":0.00039598092,"MEAN_MOTION_DOT":1.74e-6,"MEAN_MOTION_DDOT":0},{"OBJECT_NAME":"ONEWEB-0516","OBJECT_ID":"2022-138X","EPOCH":"2025-11-06T04:04:50.702592","MEAN_MOTION":13.19725941,"ECCENTRICITY":0.00020189,"INCLINATION":87.9222,"RA_OF_ASC_NODE":349.3589,"ARG_OF_PERICENTER":98.2584,"MEAN_ANOMALY":261.8777,"EPHEMERIS_TYPE":0,"CLASSIFICATION_TYPE":"U","NORAD_CAT_ID":54134,"ELEMENT_SET_NO":999,"REV_AT_EPOCH":14741,"BSTAR":0.00016104023,"MEAN_MOTION_DOT":7.7e-7,"MEAN_MOTION_DDOT":0},{"OBJECT_NAME":"ONEWEB-0517","OBJECT_ID":"2022-138Y","EPOCH":"2025-11-06T01:46:06.307968","MEAN_MOTION":13.19725497,"ECCENTRICITY":0.0001606,"INCLINATION":87.9245,"RA_OF_ASC_NODE":349.3518,"ARG_OF_PERICENTER":99.415,"MEAN_ANOMALY":260.7164,"EPHEMERIS_TYPE":0,"CLASSIFICATION_TYPE":"U","NORAD_CAT_ID":54135,"ELEMENT_SET_NO":999,"REV_AT_EPOCH":14740,"BSTAR":0.00031266311,"MEAN_MOTION_DOT":1.38e-6,"MEAN_MOTION_DDOT":0}]
