ONEWEB-0501             
1 54119U 22138G   25310.11317577  .00000052  00000+0  98688-4 0  9998
2 54119  87.9243 349.3430 0002118 106.2141 253.9225 13.19726904147381
ONEWEB-0502             
1 54120U 22138H   25310.09895344  .00000086  00000+0  18172-3 0  9996
2 54120  87.9239 349.3278 0001914 103.8567 256.2779 13.19726896147409
ONEWEB-0503             
1 54121U 22138J   25310.16371691  .00000025  00000+0  29157-4 0  9998
2 54121  87.9240 349.3193 0001606  99.8965 260.2349 13.19725212147401
ONEWEB-0504             
1 54122U 22138K   25310.15108439  .00000056  00000+0  10756-3 0  9994
2 54122  87.9235 349.3388 0001901 105.0719 255.0624 13.19725930147413
ONEWEB-0505             
1 54123U 22138L   25310.14792358  .00000081  00000+0  17035-3 0  9998
2 54123  87.9239 349.3279 0002178 110.1446 249.9921 13.19726138147398
ONEWEB-0506             
1 54124U 22138M   25310.12264872  .00000096  00000+0  20704-3 0  9995
2 54124  87.9240 349.3302 0001936 101.8163 258.3187 13.19726754147383
ONEWEB-0507             
1 54125U 22138N   25310.14318100  .00000070  00000+0  14216-3 0  9995
2 54125  87.9222 349.3678 0002022 101.2332 258.9028 13.19725959147431
ONEWEB-0508             
1 54126U 22138P   25310.14001856  .00000119  00000+0  26442-3 0  9991
2 54126  87.9230 349.3582 0002200 103.4792 256.6586 13.19726293147411
ONEWEB-0509             
1 54127U 22138Q   25310.11475039  .00000056  00000+0  10781-3 0  9996
2 54127  87.9245 349.3308 0001940 100.1539 259.9813 13.19725843147382
ONEWEB-0510             
1 54128U 22138R   25310.25502149 -.00000072  00000+0 -20818-3 0  9997
2 54128  87.9181 318.8986 0001645  75.1616 284.9700 13.20772091149850
ONEWEB-0511             
1 54129U 22138S   25310.18740832 -.00000010  00000+0 -57138-4 0  9991
2 54129  87.9239 349.3201 0001630 102.2778 257.8537 13.19726377147421
ONEWEB-0512             
1 54130U 22138T   25310.10368911  .00000044  00000+0  78057-4 0  9997
2 54130  87.9226 349.3671 0001994 108.1936 251.9414 13.19726621147380
ONEWEB-0513             
1 54131U 22138U   25310.12563137  .00000037  00000+0  60116-4 0  9996
2 54131  87.9245 349.3236 0001766 116.5147 243.6167 13.20319400147280
ONEWEB-0514             
1 54132U 22138V   25310.11949081  .00000065  00000+0  12915-3 0  9996
2 54132  87.9235 349.3456 0001770  94.0227 266.1108 13.19725846147400
ONEWEB-0515             
1 54133U 22138W   25310.31814497  .00000174  00000+0  39598-3 0  9998
2 54133  87.9188 318.8694 0002317  70.1350 290.0033 13.20772657149884
ONEWEB-0516             
1 54134U 22138X   25310.17003128  .00000077  00000+0  16104-3 0  9994
2 54134  87.9222 349.3589 0002018  98.2584 261.8777 13.19725941147414
ONEWEB-0517             
1 54135U 22138Y   25310.07368412  .00000138  00000+0  31266-3 0  9998
2 54135  87.9245 349.3518 0001606  99.4150 260.7164 13.19725497147409
